{"type": "FeatureCollection", "features": [ {"type": "Feature", "properties": {"norad_id": 66819, "name": "STARLINK-35989", "group": "last-30-days", "lat": -19.041458436304225, "lon": 10.764965929929499, "alt_km": 416.4530201704647, "timestamp": "2025-12-26T14:28:46.396247+00:00", "meta": {"OBJECT_NAME": "STARLINK-35989", "OBJECT_ID": "2025-278AE", "EPOCH": "2025-12-26T06:00:02.999808", "MEAN_MOTION": 15.50532765, "ECCENTRICITY": 0.00015913, "INCLINATION": 43.0003, "RA_OF_ASC_NODE": 171.093, "ARG_OF_PERICENTER": 268.7741, "MEAN_ANOMALY": 125.392, "EPHEMERIS_TYPE": 0, "CLASSIFICATION_TYPE": "U", "NORAD_CAT_ID": 66819, "ELEMENT_SET_NO": 999, "REV_AT_EPOCH": 513, "BSTAR": 0.00074014677, "MEAN_MOTION_DOT": 0.00043248, "MEAN_MOTION_DDOT": 0}, "tle": {"line1": "1 66819U 25278AE  25360.25003472  .00043248  00000+0  74015-3 0  9993", "line2": "2 66819  43.0003 171.0930 0001591 268.7741 125.3920 15.50532765  5134"}}, "geometry": {"type": "Point", "coordinates": [10.764965929929499, -19.041458436304225]}}, {"type": "Feature", "properties": {"norad_id": 66820, "name": "KOMPSAT-7", "group": "last-30-days", "lat": -57.53490469623933, "lon": -41.57949109846304, "alt_km": 571.222223614328, "timestamp": "2025-12-26T14:28:46.396257+00:00", "meta": {"OBJECT_NAME": "KOMPSAT-7", "OBJECT_ID": "2025-279A", "EPOCH": "2025-12-25T13:08:14.231616", "MEAN_MOTION": 15.00813233, "ECCENTRICITY": 0.00097586, "INCLINATION": 97.6449, "RA_OF_ASC_NODE": 305.1939, "ARG_OF_PERICENTER": 217.4466, "MEAN_ANOMALY": 142.6079, "EPHEMERIS_TYPE": 0, "CLASSIFICATION_TYPE": "U", "NORAD_CAT_ID": 66820, "ELEMENT_SET_NO": 999, "REV_AT_EPOCH": 357, "BSTAR": 0.00023523549, "MEAN_MOTION_DOT": 2.931e-05, "MEAN_MOTION_DDOT": 0}, "tle": {"line1": "1 66820U 25279A   25359.54738694  .00002931  00000+0  23524-3 0  9990", "line2": "2 66820  97.6449 305.1939 0009758 217.4466 142.6079 15.00813233  3572"}}, "geometry": {"type": "Point", "coordinates": [-41.57949109846304, -57.53490469623933]}}, {"type": "Feature", "properties": {"norad_id": 66821, "name": "STARLINK-35966", "group": "last-30-days", "lat": 61.27483725415858, "lon": -157.90731439174067, "alt_km": 404.8804554686203, "timestamp": "2025-12-26T14:28:46.396267+00:00", "meta": {"OBJECT_NAME": "STARLINK-35966", "OBJECT_ID": "2025-280A", "EPOCH": "2025-12-26T06:00:02.999808", "MEAN_MOTION": 15.52436036, "ECCENTRICITY": 0.00033072, "INCLINATION": 70.0005, "RA_OF_ASC_NODE": 161.4104, "ARG_OF_PERICENTER": 272.3477, "MEAN_ANOMALY": 342.7656, "EPHEMERIS_TYPE": 0, "CLASSIFICATION_TYPE": "U", "NORAD_CAT_ID": 66821, "ELEMENT_SET_NO": 999, "REV_AT_EPOCH": 506, "BSTAR": 0.0019164311, "MEAN_MOTION_DOT": 0.00119161, "MEAN_MOTION_DDOT": 0}, "tle": {"line1": "1 66821U 25280A   25360.25003472  .00119161  00000+0  19164-2 0  9990", "line2": "2 66821  70.0005 161.4104 0003307 272.3477 342.7656 15.52436036  5068"}}, "geometry": {"type": "Point", "coordinates": [-157.90731439174067, 61.27483725415858]}}, {"type": "Feature", "properties": {"norad_id": 66822, "name": "STARLINK-35958", "group": "last-30-days", "lat": 62.748048065729016, "lon": -154.5555910870787, "alt_km": 404.4266779474974, "timestamp": "2025-12-26T14:28:46.396279+00:00", "meta": {"OBJECT_NAME": "STARLINK-35958", "OBJECT_ID": "2025-280B", "EPOCH": "2025-12-25T21:09:55.876608", "MEAN_MOTION": 15.52524711, "ECCENTRICITY": 0.0003381, "INCLINATION": 70.0003, "RA_OF_ASC_NODE": 162.418, "ARG_OF_PERICENTER": 268.924, "MEAN_ANOMALY": 91.156, "EPHEMERIS_TYPE": 0, "CLASSIFICATION_TYPE": "U", "NORAD_CAT_ID": 66822, "ELEMENT_SET_NO": 999, "REV_AT_EPOCH": 497, "BSTAR": 0.0016095, "MEAN_MOTION_DOT": 0.00100126, "MEAN_MOTION_DDOT": 0}, "tle": {"line1": "1 66822U 25280B   25359.88189672  .00100126  00000+0  16095-2 0  9996", "line2": "2 66822  70.0003 162.4180 0003381 268.9240  91.1560 15.52524711  4979"}}, "geometry": {"type": "Point", "coordinates": [-154.5555910870787, 62.748048065729016]}}, {"type": "Feature", "properties": {"norad_id": 66823, "name": "STARLINK-35957", "group": "last-30-days", "lat": 63.865462827511394, "lon": -151.6294115101701, "alt_km": 403.9996370616227, "timestamp": "2025-12-26T14:28:46.396290+00:00", "meta": {"OBJECT_NAME": "STARLINK-35957", "OBJECT_ID": "2025-280C", "EPOCH": "2025-12-26T06:26:08.806272", "MEAN_MOTION": 15.52584083, "ECCENTRICITY": 0.00029536, "INCLINATION": 70.0004, "RA_OF_ASC_NODE": 161.3572, "ARG_OF_PERICENTER": 279.9093, "MEAN_ANOMALY": 80.176, "EPHEMERIS_TYPE": 0, "CLASSIFICATION_TYPE": "U", "NORAD_CAT_ID": 66823, "ELEMENT_SET_NO": 999, "REV_AT_EPOCH": 503, "BSTAR": 0.0011787577, "MEAN_MOTION_DOT": 0.0007319, "MEAN_MOTION_DDOT": 0}, "tle": {"line1": "1 66823U 25280C   25360.26815748  .00073190  00000+0  11788-2 0  9995", "line2": "2 66823  70.0004 161.3572 0002953 279.9093  80.1760 15.52584083  5032"}}, "geometry": {"type": "Point", "coordinates": [-151.6294115101701, 63.865462827511394]}}, {"type": "Feature", "properties": {"norad_id": 66824, "name": "STARLINK-35896", "group": "last-30-days", "lat": 65.09015952011325, "lon": -147.90722193563911, "alt_km": 404.15932577905824, "timestamp": "2025-12-26T14:28:46.396300+00:00", "meta": {"OBJECT_NAME": "STARLINK-35896", "OBJECT_ID": "2025-280D", "EPOCH": "2025-12-26T06:25:36.630912", "MEAN_MOTION": 15.52525848, "ECCENTRICITY": 0.00030344, "INCLINATION": 70.0004, "RA_OF_ASC_NODE": 161.3555, "ARG_OF_PERICENTER": 274.3139, "MEAN_ANOMALY": 85.7701, "EPHEMERIS_TYPE": 0, "CLASSIFICATION_TYPE": "U", "NORAD_CAT_ID": 66824, "ELEMENT_SET_NO": 999, "REV_AT_EPOCH": 503, "BSTAR": 0.0015480087, "MEAN_MOTION_DOT": 0.00096249, "MEAN_MOTION_DDOT": 0}, "tle": {"line1": "1 66824U 25280D   25360.26778508  .00096249  00000+0  15480-2 0  9991", "line2": "2 66824  70.0004 161.3555 0003034 274.3139  85.7701 15.52525848  5035"}}, "geometry": {"type": "Point", "coordinates": [-147.90722193563911, 65.09015952011325]}}, {"type": "Feature", "properties": {"norad_id": 66825, "name": "STARLINK-35476", "group": "last-30-days", "lat": 66.16410500215106, "lon": -144.03719634707102, "alt_km": 404.1654126555268, "timestamp": "2025-12-26T14:28:46.396312+00:00", "meta": {"OBJECT_NAME": "STARLINK-35476", "OBJECT_ID": "2025-280E", "EPOCH": "2025-12-26T06:25:06.959424", "MEAN_MOTION": 15.52530885, "ECCENTRICITY": 0.00032264, "INCLINATION": 70.0004, "RA_OF_ASC_NODE": 161.3541, "ARG_OF_PERICENTER": 277.2006, "MEAN_ANOMALY": 82.8814, "EPHEMERIS_TYPE": 0, "CLASSIFICATION_TYPE": "U", "NORAD_CAT_ID": 66825, "ELEMENT_SET_NO": 999, "REV_AT_EPOCH": 503, "BSTAR": 0.0014300632, "MEAN_MOTION_DOT": 0.00088838, "MEAN_MOTION_DDOT": 0}, "tle": {"line1": "1 66825U 25280E   25360.26744166  .00088838  00000+0  14301-2 0  9991", "line2": "2 66825  70.0004 161.3541 0003226 277.2006  82.8814 15.52530885  5039"}}, "geometry": {"type": "Point", "coordinates": [-144.03719634707102, 66.16410500215106]}}, {"type": "Feature", "properties": {"norad_id": 66826, "name": "STARLINK-35898", "group": "last-30-days", "lat": 66.99176170044801, "lon": -140.5073085698724, "alt_km": 404.15955409116486, "timestamp": "2025-12-26T14:28:46.396323+00:00", "meta": {"OBJECT_NAME": "STARLINK-35898", "OBJECT_ID": "2025-280F", "EPOCH": "2025-12-26T06:24:40.324896", "MEAN_MOTION": 15.52461862, "ECCENTRICITY": 0.00028837, "INCLINATION": 70.0005, "RA_OF_ASC_NODE": 161.3527, "ARG_OF_PERICENTER": 276.3822, "MEAN_ANOMALY": 83.7036, "EPHEMERIS_TYPE": 0, "CLASSIFICATION_TYPE": "U", "NORAD_CAT_ID": 66826, "ELEMENT_SET_NO": 999, "REV_AT_EPOCH": 503, "BSTAR": 0.00088590236, "MEAN_MOTION_DOT": 0.00054594, "MEAN_MOTION_DDOT": 0}, "tle": {"line1": "1 66826U 25280F   25360.26713339  .00054594  00000+0  88590-3 0  9994", "line2": "2 66826  70.0005 161.3527 0002883 276.3822  83.7036 15.52461862  5033"}}, "geometry": {"type": "Point", "coordinates": [-140.5073085698724, 66.99176170044801]}}, {"type": "Feature", "properties": {"norad_id": 66827, "name": "STARLINK-35959", "group": "last-30-days", "lat": 67.9476715677049, "lon": -135.52914328596822, "alt_km": 404.0954118807949, "timestamp": "2025-12-26T14:28:46.396333+00:00", "meta": {"OBJECT_NAME": "STARLINK-35959", "OBJECT_ID": "2025-280G", "EPOCH": "2025-12-26T06:24:08.981568", "MEAN_MOTION": 15.52548169, "ECCENTRICITY": 0.0003246, "INCLINATION": 70.0006, "RA_OF_ASC_NODE": 161.351, "ARG_OF_PERICENTER": 271.2913, "MEAN_ANOMALY": 88.7902, "EPHEMERIS_TYPE": 0, "CLASSIFICATION_TYPE": "U", "NORAD_CAT_ID": 66827, "ELEMENT_SET_NO": 999, "REV_AT_EPOCH": 503, "BSTAR": 0.0011234991, "MEAN_MOTION_DOT": 0.00069632, "MEAN_MOTION_DDOT": 0}, "tle": {"line1": "1 66827U 25280G   25360.26677062  .00069632  00000+0  11235-2 0  9997", "line2": "2 66827  70.0006 161.3510 0003246 271.2913  88.7902 15.52548169  5039"}}, "geometry": {"type": "Point", "coordinates": [-135.52914328596822, 67.9476715677049]}}, {"type": "Feature", "properties": {"norad_id": 66828, "name": "STARLINK-35982", "group": "last-30-days", "lat": 69.25791497979569, "lon": -125.47216007679039, "alt_km": 403.70763668720883, "timestamp": "2025-12-26T14:28:46.396342+00:00", "meta": {"OBJECT_NAME": "STARLINK-35982", "OBJECT_ID": "2025-280H", "EPOCH": "2025-12-26T06:23:09.683520", "MEAN_MOTION": 15.5257025, "ECCENTRICITY": 0.00030985, "INCLINATION": 70.0004, "RA_OF_ASC_NODE": 161.3489, "ARG_OF_PERICENTER": 278.2897, "MEAN_ANOMALY": 81.7938, "EPHEMERIS_TYPE": 0, "CLASSIFICATION_TYPE": "U", "NORAD_CAT_ID": 66828, "ELEMENT_SET_NO": 999, "REV_AT_EPOCH": 503, "BSTAR": 0.0018958009, "MEAN_MOTION_DOT": 0.00118432, "MEAN_MOTION_DDOT": 0}, "tle": {"line1": "1 66828U 25280H   25360.26608430  .00118432  00000+0  18958-2 0  9993", "line2": "2 66828  70.0004 161.3489 0003098 278.2897  81.7938 15.52570250  5034"}}, "geometry": {"type": "Point", "coordinates": [-125.47216007679039, 69.25791497979569]}}]}